INTELSAT 18 (IS-18)     
1 37834U 11056A   26095.06741880  .00000054  00000+0  00000+0 0  9991
2 37834   0.0155 249.4731 0001983 128.2288  19.9461  1.00274034 53076
SL-23 R/B               
1 37835U 11056B   26094.74301079  .00000160  00000+0  00000+0 0  9996
2 37835  19.6389 331.8201 5665968 249.1643  43.1900  1.96794708104223
EUTELSAT 16A            
1 37836U 11057A   26095.22267174  .00000105  00000+0  00000+0 0  9998
2 37836   0.0606  17.4047 0005553   1.0965 271.1791  1.00273268  6602
VIASAT-1                
1 37843U 11059A   26095.22307276 -.00000024  00000+0  00000+0 0  9997
2 37843   0.0165 229.6625 0002427 142.9116 146.1635  1.00278647 46595
ASIASAT 7               
1 37933U 11069A   26095.05285874 -.00000333  00000+0  00000+0 0  9991
2 37933   0.0184 179.7130 0001781 198.0226 300.1468  1.00274490 44123
BEIDOU-2 IGSO-5         
1 37948U 11073A   26093.97039089 -.00000174  00000+0  00000+0 0  9999
2 37948  47.8149 272.4589 0109539 220.8427 142.8662  1.00265759 52398
AMOS-5                  
1 37950U 11074A   26094.92161448 -.00000312  00000+0  00000+0 0  9998
2 37950   8.6468  61.5418 0002594 333.9272 233.1416  1.00186271 52263
LUCH-5A                 
1 37951U 11074B   26095.20755938 -.00000046  00000+0  00000+0 0  9998
2 37951   8.5692  74.8663 0003158 285.7906  74.4996  1.00271373 52320
BREEZE-M R/B            
1 37952U 11074C   26095.13952576 -.00000196  00000+0  00000+0 0  9994
2 37952  11.2098  50.8269 0796811 178.8746 202.1613  0.89625772 46496
NIGCOMSAT 1R            
1 38014U 11077A   26095.25400993  .00000146  00000+0  00000+0 0  9995
2 38014   0.0362 238.8094 0002899  97.2729 351.4172  1.00269163 52229
WGS F4 (USA 233)        
1 38070U 12003A   26095.12316836 -.00000214  00000+0  00000+0 0  9992
2 38070   0.0146 194.0403 0000226 198.9498 293.1742  1.00272753 43417
DELTA 4 R/B             
1 38071U 12003B   26094.48974908  .00003165  00000+0  29434-2 0  9993
2 38071  20.3561 111.1698 8261055 310.5897   2.6871  1.16670427 60100
FENGYUN 2F AKM          
1 38072U 12002C   26094.93909071  .00000034  00000+0  00000+0 0  9999
2 38072   8.9965  58.5325 0062759 206.4033 157.8034  0.99391764 51118
SES-4                   
1 38087U 12007A   26095.24144321 -.00000167  00000+0  00000+0 0  9992
2 38087   0.0268  65.5775 0002224 319.2818 233.6083  1.00270437 51499
BEIDOU-2 G5             
1 38091U 12008A   26095.18615262  .00000058  00000+0  00000+0 0  9996
2 38091   3.3924  70.1158 0013180 261.3911 347.7894  1.00276225 51634
MUOS-1                  
1 38093U 12009A   26094.94082404 -.00000125  00000+0  00000+0 0  9994
2 38093   5.3270  47.1834 0058932 359.8375  24.9784  1.00271604 51715
INTELSAT 22 (IS-22)     
1 38098U 12011A   26095.11751234 -.00000057  00000+0  00000+0 0  9990
2 38098   0.0110 215.6847 0001678 164.1870 287.9568  1.00271524  6456
