[{"OBJECT_NAME":"INTELSAT 18 (IS-18)","OBJECT_ID":"2011-056A","EPOCH":"2026-04-05T01:37:04.984320","MEAN_MOTION":1.00274034,"ECCENTRICITY":0.00019834,"INCLINATION":0.0155,"RA_OF_ASC_NODE":249.4731,"ARG_OF_PERICENTER":128.2288,"MEAN_ANOMALY":19.9461,"EPHEMERIS_TYPE":0,"CLASSIFICATION_TYPE":"U","NORAD_CAT_ID":37834,"ELEMENT_SET_NO":999,"REV_AT_EPOCH":5307,"BSTAR":0,"MEAN_MOTION_DOT":5.4e-7,"MEAN_MOTION_DDOT":0},{"OBJECT_NAME":"SL-23 R/B","OBJECT_ID":"2011-056B","EPOCH":"2026-04-04T17:49:56.132256","MEAN_MOTION":1.96794708,"ECCENTRICITY":0.5665968,"INCLINATION":19.6389,"RA_OF_ASC_NODE":331.8201,"ARG_OF_PERICENTER":249.1643,"MEAN_ANOMALY":43.19,"EPHEMERIS_TYPE":0,"CLASSIFICATION_TYPE":"U","NORAD_CAT_ID":37835,"ELEMENT_SET_NO":999,"REV_AT_EPOCH":10422,"BSTAR":0,"MEAN_MOTION_DOT":1.6e-6,"MEAN_MOTION_DDOT":0},{"OBJECT_NAME":"EUTELSAT 16A","OBJECT_ID":"2011-057A","EPOCH":"2026-04-05T05:20:38.838336","MEAN_MOTION":1.00273268,"ECCENTRICITY":0.00055539,"INCLINATION":0.0606,"RA_OF_ASC_NODE":17.4047,"ARG_OF_PERICENTER":1.0965,"MEAN_ANOMALY":271.1791,"EPHEMERIS_TYPE":0,"CLASSIFICATION_TYPE":"U","NORAD_CAT_ID":37836,"ELEMENT_SET_NO":999,"REV_AT_EPOCH":660,"BSTAR":0,"MEAN_MOTION_DOT":1.05e-6,"MEAN_MOTION_DDOT":0},{"OBJECT_NAME":"VIASAT-1","OBJECT_ID":"2011-059A","EPOCH":"2026-04-05T05:21:13.486464","MEAN_MOTION":1.00278647,"ECCENTRICITY":0.00024278,"INCLINATION":0.0165,"RA_OF_ASC_NODE":229.6625,"ARG_OF_PERICENTER":142.9116,"MEAN_ANOMALY":146.1635,"EPHEMERIS_TYPE":0,"CLASSIFICATION_TYPE":"U","NORAD_CAT_ID":37843,"ELEMENT_SET_NO":999,"REV_AT_EPOCH":4659,"BSTAR":0,"MEAN_MOTION_DOT":-2.4e-7,"MEAN_MOTION_DDOT":0},{"OBJECT_NAME":"ASIASAT 7","OBJECT_ID":"2011-069A","EPOCH":"2026-04-05T01:16:06.995136","MEAN_MOTION":1.0027449,"ECCENTRICITY":0.00017818,"INCLINATION":0.0184,"RA_OF_ASC_NODE":179.713,"ARG_OF_PERICENTER":198.0226,"MEAN_ANOMALY":300.1468,"EPHEMERIS_TYPE":0,"CLASSIFICATION_TYPE":"U","NORAD_CAT_ID":37933,"ELEMENT_SET_NO":999,"REV_AT_EPOCH":4412,"BSTAR":0,"MEAN_MOTION_DOT":-3.33e-6,"MEAN_MOTION_DDOT":0},{"OBJECT_NAME":"BEIDOU-2 IGSO-5","OBJECT_ID":"2011-073A","EPOCH":"2026-04-03T23:17:21.772896","MEAN_MOTION":1.00265759,"ECCENTRICITY":0.01095393,"INCLINATION":47.8149,"RA_OF_ASC_NODE":272.4589,"ARG_OF_PERICENTER":220.8427,"MEAN_ANOMALY":142.8662,"EPHEMERIS_TYPE":0,"CLASSIFICATION_TYPE":"U","NORAD_CAT_ID":37948,"ELEMENT_SET_NO":999,"REV_AT_EPOCH":5239,"BSTAR":0,"MEAN_MOTION_DOT":-1.74e-6,"MEAN_MOTION_DDOT":0},{"OBJECT_NAME":"AMOS-5","OBJECT_ID":"2011-074A","EPOCH":"2026-04-04T22:07:07.491072","MEAN_MOTION":1.00186271,"ECCENTRICITY":0.00025943,"INCLINATION":8.6468,"RA_OF_ASC_NODE":61.5418,"ARG_OF_PERICENTER":333.9272,"MEAN_ANOMALY":233.1416,"EPHEMERIS_TYPE":0,"CLASSIFICATION_TYPE":"U","NORAD_CAT_ID":37950,"ELEMENT_SET_NO":999,"REV_AT_EPOCH":5226,"BSTAR":0,"MEAN_MOTION_DOT":-3.12e-6,"MEAN_MOTION_DDOT":0},{"OBJECT_NAME":"LUCH-5A","OBJECT_ID":"2011-074B","EPOCH":"2026-04-05T04:58:53.130432","MEAN_MOTION":1.00271373,"ECCENTRICITY":0.0003158,"INCLINATION":8.5692,"RA_OF_ASC_NODE":74.8663,"ARG_OF_PERICENTER":285.7906,"MEAN_ANOMALY":74.4996,"EPHEMERIS_TYPE":0,"CLASSIFICATION_TYPE":"U","NORAD_CAT_ID":37951,"ELEMENT_SET_NO":999,"REV_AT_EPOCH":5232,"BSTAR":0,"MEAN_MOTION_DOT":-4.6e-7,"MEAN_MOTION_DDOT":0},{"OBJECT_NAME":"BREEZE-M R/B","OBJECT_ID":"2011-074C","EPOCH":"2026-04-05T03:20:55.025664","MEAN_MOTION":0.89625772,"ECCENTRICITY":0.07968114,"INCLINATION":11.2098,"RA_OF_ASC_NODE":50.8269,"ARG_OF_PERICENTER":178.8746,"MEAN_ANOMALY":202.1613,"EPHEMERIS_TYPE":0,"CLASSIFICATION_TYPE":"U","NORAD_CAT_ID":37952,"ELEMENT_SET_NO":999,"REV_AT_EPOCH":4649,"BSTAR":0,"MEAN_MOTION_DOT":-1.96e-6,"MEAN_MOTION_DDOT":0},{"OBJECT_NAME":"NIGCOMSAT 1R","OBJECT_ID":"2011-077A","EPOCH":"2026-04-05T06:05:46.457952","MEAN_MOTION":1.00269163,"ECCENTRICITY":0.0002899,"INCLINATION":0.0362,"RA_OF_ASC_NODE":238.8094,"ARG_OF_PERICENTER":97.2729,"MEAN_ANOMALY":351.4172,"EPHEMERIS_TYPE":0,"CLASSIFICATION_TYPE":"U","NORAD_CAT_ID":38014,"ELEMENT_SET_NO":999,"REV_AT_EPOCH":5222,"BSTAR":0,"MEAN_MOTION_DOT":1.46e-6,"MEAN_MOTION_DDOT":0},{"OBJECT_NAME":"WGS F4 (USA 233)","OBJECT_ID":"2012-003A","EPOCH":"2026-04-05T02:57:21.746304","MEAN_MOTION":1.00272753,"ECCENTRICITY":2.262e-5,"INCLINATION":0.0146,"RA_OF_ASC_NODE":194.0403,"ARG_OF_PERICENTER":198.9498,"MEAN_ANOMALY":293.1742,"EPHEMERIS_TYPE":0,"CLASSIFICATION_TYPE":"U","NORAD_CAT_ID":38070,"ELEMENT_SET_NO":999,"REV_AT_EPOCH":4341,"BSTAR":0,"MEAN_MOTION_DOT":-2.14e-6,"MEAN_MOTION_DDOT":0},{"OBJECT_NAME":"DELTA 4 R/B","OBJECT_ID":"2012-003B","EPOCH":"2026-04-04T11:45:14.320512","MEAN_MOTION":1.16670427,"ECCENTRICITY":0.82610553,"INCLINATION":20.3561,"RA_OF_ASC_NODE":111.1698,"ARG_OF_PERICENTER":310.5897,"MEAN_ANOMALY":2.6871,"EPHEMERIS_TYPE":0,"CLASSIFICATION_TYPE":"U","NORAD_CAT_ID":38071,"ELEMENT_SET_NO":999,"REV_AT_EPOCH":6010,"BSTAR":0.0029433645,"MEAN_MOTION_DOT":3.165e-5,"MEAN_MOTION_DDOT":0},{"OBJECT_NAME":"FENGYUN 2F AKM","OBJECT_ID":"2012-002C","EPOCH":"2026-04-04T22:32:17.437344","MEAN_MOTION":0.99391764,"ECCENTRICITY":0.00627594,"INCLINATION":8.9965,"RA_OF_ASC_NODE":58.5325,"ARG_OF_PERICENTER":206.4033,"MEAN_ANOMALY":157.8034,"EPHEMERIS_TYPE":0,"CLASSIFICATION_TYPE":"U","NORAD_CAT_ID":38072,"ELEMENT_SET_NO":999,"REV_AT_EPOCH":5111,"BSTAR":0,"MEAN_MOTION_DOT":3.4e-7,"MEAN_MOTION_DDOT":0},{"OBJECT_NAME":"SES-4","OBJECT_ID":"2012-007A","EPOCH":"2026-04-05T05:47:40.693344","MEAN_MOTION":1.00270437,"ECCENTRICITY":0.00022248,"INCLINATION":0.0268,"RA_OF_ASC_NODE":65.5775,"ARG_OF_PERICENTER":319.2818,"MEAN_ANOMALY":233.6083,"EPHEMERIS_TYPE":0,"CLASSIFICATION_TYPE":"U","NORAD_CAT_ID":38087,"ELEMENT_SET_NO":999,"REV_AT_EPOCH":5149,"BSTAR":0,"MEAN_MOTION_DOT":-1.67e-6,"MEAN_MOTION_DDOT":0},{"OBJECT_NAME":"BEIDOU-2 G5","OBJECT_ID":"2012-008A","EPOCH":"2026-04-05T04:28:03.586368","MEAN_MOTION":1.00276225,"ECCENTRICITY":0.00131804,"INCLINATION":3.3924,"RA_OF_ASC_NODE":70.1158,"ARG_OF_PERICENTER":261.3911,"MEAN_ANOMALY":347.7894,"EPHEMERIS_TYPE":0,"CLASSIFICATION_TYPE":"U","NORAD_CAT_ID":38091,"ELEMENT_SET_NO":999,"REV_AT_EPOCH":5163,"BSTAR":0,"MEAN_MOTION_DOT":5.8e-7,"MEAN_MOTION_DDOT":0},{"OBJECT_NAME":"MUOS-1","OBJECT_ID":"2012-009A","EPOCH":"2026-04-04T22:34:47.197056","MEAN_MOTION":1.00271604,"ECCENTRICITY":0.00589325,"INCLINATION":5.327,"RA_OF_ASC_NODE":47.1834,"ARG_OF_PERICENTER":359.8375,"MEAN_ANOMALY":24.9784,"EPHEMERIS_TYPE":0,"CLASSIFICATION_TYPE":"U","NORAD_CAT_ID":38093,"ELEMENT_SET_NO":999,"REV_AT_EPOCH":5171,"BSTAR":0,"MEAN_MOTION_DOT":-1.25e-6,"MEAN_MOTION_DDOT":0},{"OBJECT_NAME":"INTELSAT 22 (IS-22)","OBJECT_ID":"2012-011A","EPOCH":"2026-04-05T02:49:13.066176","MEAN_MOTION":1.00271524,"ECCENTRICITY":0.00016781,"INCLINATION":0.011,"RA_OF_ASC_NODE":215.6847,"ARG_OF_PERICENTER":164.187,"MEAN_ANOMALY":287.9568,"EPHEMERIS_TYPE":0,"CLASSIFICATION_TYPE":"U","NORAD_CAT_ID":38098,"ELEMENT_SET_NO":999,"REV_AT_EPOCH":645,"BSTAR":0,"MEAN_MOTION_DOT":-5.7e-7,"MEAN_MOTION_DDOT":0}]
